[
    {
        "Altitude(m)": 624792.8016138982,
        "Argument of Periapsis(deg)": 0.0,
        "Eccentricity": 0.0,
        "Inclination(deg)": 60.0,
        "Latitude(deg)": -59.14717713268938,
        "Longitude(deg)": -115.97369613718472,
        "Mean Anomaly(deg)": 261.8182,
        "RAAN(deg)": 90.0,
        "Satellite Name": "Test1 412",
        "Satellite Number": 412,
        "Semi-Major Axis(m)": 6980739.136638005,
        "Time(s)": 0
    },
    {
        "Altitude(m)": 624842.1939474782,
        "Argument of Periapsis(deg)": 0.00010418945913296404,
        "Eccentricity": 0.0,
        "Inclination(deg)": 60.0,
        "Latitude(deg)": -59.28926187096539,
        "Longitude(deg)": -114.84418964752898,
        "Mean Anomaly(deg)": 262.43830614546187,
        "RAAN(deg)": 89.99957995086027,
        "Satellite Name": "Test1 412",
        "Satellite Number": 412,
        "Semi-Major Axis(m)": 6980739.136638005,
        "Time(s)": 10
    },
    {
        "Altitude(m)": 624887.7620176286,
        "Argument of Periapsis(deg)": 0.0002083789182659281,
        "Eccentricity": 0.0,
        "Inclination(deg)": 60.0,
        "Latitude(deg)": -59.420735732414016,
        "Longitude(deg)": -113.70526247024405,
        "Mean Anomaly(deg)": 263.05841229092374,
        "RAAN(deg)": 89.99915990172052,
        "Satellite Name": "Test1 412",
        "Satellite Number": 412,
        "Semi-Major Axis(m)": 6980739.136638005,
        "Time(s)": 20
    },
    {
        "Altitude(m)": 624929.4878608945,
        "Argument of Periapsis(deg)": 0.00031256837739889213,
        "Eccentricity": 0.0,
        "Inclination(deg)": 60.0,
        "Latitude(deg)": -59.54146141378187,
        "Longitude(deg)": -112.5575369145953,
        "Mean Anomaly(deg)": 263.67851843638556,
        "RAAN(deg)": 89.99873985258078,
        "Satellite Name": "Test1 412",
        "Satellite Number": 412,
        "Semi-Major Axis(m)": 6980739.136638005,
        "Time(s)": 30
    },
    {
        "Altitude(m)": 624967.355024982,
        "Argument of Periapsis(deg)": 0.0004167578365318562,
        "Eccentricity": 0.0,
        "Inclination(deg)": 60.0,
        "Latitude(deg)": -59.65131074527671,
        "Longitude(deg)": -111.40167027535196,
        "Mean Anomaly(deg)": 264.2986245818473,
        "RAAN(deg)": 89.99831980344103,
        "Satellite Name": "Test1 412",
        "Satellite Number": 412,
        "Semi-Major Axis(m)": 6980739.136638005,
        "Time(s)": 40
    },
    {
        "Altitude(m)": 625001.3485757087,
        "Argument of Periapsis(deg)": 0.0005209472956648203,
        "Eccentricity": 0.0,
        "Inclination(deg)": 60.0,
        "Latitude(deg)": -59.75016532966991,
        "Longitude(deg)": -110.23835399606524,
        "Mean Anomaly(deg)": 264.9187307273092,
        "RAAN(deg)": 89.9978997543013,
        "Satellite Name": "Test1 412",
        "Satellite Number": 412,
        "Semi-Major Axis(m)": 6980739.136638005,
        "Time(s)": 50
    },
    {
        "Altitude(m)": 625031.4551032833,
        "Argument of Periapsis(deg)": 0.0006251367547977843,
        "Eccentricity": 0.0,
        "Inclination(deg)": 60.0,
        "Latitude(deg)": -59.837917148325765,
        "Longitude(deg)": -109.06831099476634,
        "Mean Anomaly(deg)": 265.5388368727709,
        "RAAN(deg)": 89.99747970516154,
        "Satellite Name": "Test1 412",
        "Satellite Number": 412,
        "Semi-Major Axis(m)": 6980739.136638005,
        "Time(s)": 60
    },
    {
        "Altitude(m)": 625057.6627279717,
        "Argument of Periapsis(deg)": 0.0007293262139307483,
        "Eccentricity": 0.0,
        "Inclination(deg)": 60.0,
        "Latitude(deg)": -59.91446912732153,
        "Longitude(deg)": -107.89229267519147,
        "Mean Anomaly(deg)": 266.15894301823283,
        "RAAN(deg)": 89.9970596560218,
        "Satellite Name": "Test1 412",
        "Satellite Number": 412,
        "Semi-Major Axis(m)": 6980739.136638005,
        "Time(s)": 70
    },
    {
        "Altitude(m)": 625079.961105075,
        "Argument of Periapsis(deg)": 0.0008335156730637124,
        "Eccentricity": 0.0,
        "Inclination(deg)": 60.0,
        "Latitude(deg)": -59.97973565702598,
        "Longitude(deg)": -106.71107715231915,
        "Mean Anomaly(deg)": 266.77904916369465,
        "RAAN(deg)": 89.99663960688206,
        "Satellite Name": "Test1 412",
        "Satellite Number": 412,
        "Semi-Major Axis(m)": 6980739.136638005,
        "Time(s)": 80
    },
    {
        "Altitude(m)": 625098.3414293149,
        "Argument of Periapsis(deg)": 0.0009377051321966765,
        "Eccentricity": 0.0,
        "Inclination(deg)": 60.0,
        "Latitude(deg)": -60.03364305886243,
        "Longitude(deg)": -105.52546568786192,
        "Mean Anomaly(deg)": 267.39915530915647,
        "RAAN(deg)": 89.99621955774232,
        "Satellite Name": "Test1 412",
        "Satellite Number": 412,
        "Semi-Major Axis(m)": 6980739.136638005,
        "Time(s)": 90
    },
    {
        "Altitude(m)": 625112.7964385144,
        "Argument of Periapsis(deg)": 0.0010418945913296407,
        "Eccentricity": 0.0,
        "Inclination(deg)": 60.0,
        "Latitude(deg)": -60.076129993462324,
        "Longitude(deg)": -104.33627887528876,
        "Mean Anomaly(deg)": 268.01926145461834,
        "RAAN(deg)": 89.99579950860257,
        "Satellite Name": "Test1 412",
        "Satellite Number": 412,
        "Semi-Major Axis(m)": 6980739.136638005,
        "Time(s)": 100
    },
    {
        "Altitude(m)": 625123.3204166738,
        "Argument of Periapsis(deg)": 0.0011460840504626045,
        "Eccentricity": 0.0,
        "Inclination(deg)": 60.0,
        "Latitude(deg)": -60.10714780502557,
        "Longitude(deg)": -103.14435411889205,
        "Mean Anomaly(deg)": 268.6393676000801,
        "RAAN(deg)": 89.99537945946282,
        "Satellite Name": "Test1 412",
        "Satellite Number": 412,
        "Semi-Major Axis(m)": 6980739.136638005,
        "Time(s)": 110
    },
    {
        "Altitude(m)": 625129.9091963647,
        "Argument of Periapsis(deg)": 0.0012502735095955685,
        "Eccentricity": 0.0,
        "Inclination(deg)": 60.0,
        "Latitude(deg)": -60.12666079743455,
        "Longitude(deg)": -101.95054141721256,
        "Mean Anomaly(deg)": 269.259473745542,
        "RAAN(deg)": 89.99495941032309,
        "Satellite Name": "Test1 412",
        "Satellite Number": 412,
        "Semi-Major Axis(m)": 6980739.136638005,
        "Time(s)": 120
    },
    {
        "Altitude(m)": 625132.5601605056,
        "Argument of Periapsis(deg)": 0.0013544629687285324,
        "Eccentricity": 0.0,
        "Inclination(deg)": 60.0,
        "Latitude(deg)": -60.134646438492034,
        "Longitude(deg)": -100.75569900354675,
        "Mean Anomaly(deg)": 269.8795798910038,
        "RAAN(deg)": 89.99453936118334,
        "Satellite Name": "Test1 412",
        "Satellite Number": 412,
        "Semi-Major Axis(m)": 6980739.136638005,
        "Time(s)": 130
    },
    {
        "Altitude(m)": 625131.2722434521,
        "Argument of Periapsis(deg)": 0.0014586524278614966,
        "Eccentricity": 0.0,
        "Inclination(deg)": 60.0,
        "Latitude(deg)": -60.13109548956775,
        "Longitude(deg)": -99.56069039926555,
        "Mean Anomaly(deg)": -89.50031396353437,
        "RAAN(deg)": 89.9941193120436,
        "Satellite Name": "Test1 412",
        "Satellite Number": 412,
        "Semi-Major Axis(m)": 6980739.136638005,
        "Time(s)": 140
    },
    {
        "Altitude(m)": 625126.0459314383,
        "Argument of Periapsis(deg)": 0.0015628418869944607,
        "Eccentricity": 0.0,
        "Inclination(deg)": 60.0,
        "Latitude(deg)": -60.116012058919196,
        "Longitude(deg)": -98.36637989916854,
        "Mean Anomaly(deg)": -88.88020781807258,
        "RAAN(deg)": 89.99369926290386,
        "Satellite Name": "Test1 412",
        "Satellite Number": 412,
        "Semi-Major Axis(m)": 6980739.136638005,
        "Time(s)": 150
    },
    {
        "Altitude(m)": 625116.8832624049,
        "Argument of Periapsis(deg)": 0.0016670313461274247,
        "Eccentricity": 0.0,
        "Inclination(deg)": 60.0,
        "Latitude(deg)": -60.08941357796751,
        "Longitude(deg)": -97.17362804791009,
        "Mean Anomaly(deg)": -88.26010167261069,
        "RAAN(deg)": 89.99327921376411,
        "Satellite Name": "Test1 412",
        "Satellite Number": 412,
        "Semi-Major Axis(m)": 6980739.136638005,
        "Time(s)": 160
    },
    {
        "Altitude(m)": 625103.787825108,
        "Argument of Periapsis(deg)": 0.0017712208052603888,
        "Eccentricity": 0.0,
        "Inclination(deg)": 60.0,
        "Latitude(deg)": -60.051330700847885,
        "Longitude(deg)": -95.98328866673079,
        "Mean Anomaly(deg)": -87.6399955271489,
        "RAAN(deg)": 89.99285916462438,
        "Satellite Name": "Test1 412",
        "Satellite Number": 412,
        "Semi-Major Axis(m)": 6980739.136638005,
        "Time(s)": 170
    },
    {
        "Altitude(m)": 625086.7647576433,
        "Argument of Periapsis(deg)": 0.001875410264393353,
        "Eccentricity": 0.0,
        "Inclination(deg)": 60.0,
        "Latitude(deg)": -60.00180712858404,
        "Longitude(deg)": -94.79620445028182,
        "Mean Anomaly(deg)": -87.01988938168707,
        "RAAN(deg)": 89.99243911548463,
        "Satellite Name": "Test1 412",
        "Satellite Number": 412,
        "Semi-Major Axis(m)": 6980739.136638005,
        "Time(s)": 180
    },
    {
        "Altitude(m)": 625065.8207452742,
        "Argument of Periapsis(deg)": 0.0019795997235263173,
        "Eccentricity": 0.0,
        "Inclination(deg)": 60.0,
        "Latitude(deg)": -59.940899360231,
        "Longitude(deg)": -93.61320269020264,
        "Mean Anomaly(deg)": -86.39978323622522,
        "RAAN(deg)": 89.9920190663449,
        "Satellite Name": "Test1 412",
        "Satellite Number": 412,
        "Semi-Major Axis(m)": 6980739.136638005,
        "Time(s)": 190
    }
]